{
  "type": "FeatureCollection",
  "features": [
    {
      "type": "Feature",
      "properties": {
        "norad_id": 43823,
        "name": "GEO-KOMPSAT-2A",
        "group": "weather",
        "lat": 0.013086755082784738,
        "lon": 110.48674731281693,
        "alt_km": 35784.30075231363,
        "timestamp": "2025-12-19T16:54:43.892786+00:00",
        "meta_object_name": "GEO-KOMPSAT-2A",
        "meta_object_id": "2018-100A",
        "meta_epoch": "2025-12-19T07:01:33.771072",
        "meta_mean_motion": 1.00269958,
        "meta_eccentricity": 5.682e-05,
        "meta_inclination": 0.0576,
        "meta_ra_of_asc_node": 142.2015,
        "meta_arg_of_pericenter": 316.3726,
        "meta_mean_anomaly": 223.2264,
        "meta_ephemeris_type": 0,
        "meta_classification_type": "U",
        "meta_norad_cat_id": 43823,
        "meta_element_set_no": 999,
        "meta_rev_at_epoch": 2582,
        "meta_bstar": 0,
        "meta_mean_motion_dot": -3.19e-06,
        "meta_mean_motion_ddot": 0,
        "tle_line1": "1 43823U 18100A   25353.29275198 -.00000319  00000+0  00000+0 0  9993",
        "tle_line2": "2 43823   0.0576 142.2015 0000568 316.3726 223.2264  1.00269958 25820"
      },
      "geometry": {
        "type": "Point",
        "coordinates": [
          110.48674731281693,
          0.013086755082784738
        ]
      }
    },
    {
      "type": "Feature",
      "properties": {
        "norad_id": 44387,
        "name": "METEOR-M2 2",
        "group": "weather",
        "lat": 65.65914380141358,
        "lon": -46.73996068640114,
        "alt_km": 803.9627573975831,
        "timestamp": "2025-12-19T16:54:43.892804+00:00",
        "meta_object_name": "METEOR-M2 2",
        "meta_object_id": "2019-038A",
        "meta_epoch": "2025-12-19T06:28:53.823360",
        "meta_mean_motion": 14.24295351,
        "meta_eccentricity": 0.000153,
        "meta_inclination": 98.8969,
        "meta_ra_of_asc_node": 333.079,
        "meta_arg_of_pericenter": 133.9431,
        "meta_mean_anomaly": 226.1874,
        "meta_ephemeris_type": 0,
        "meta_classification_type": "U",
        "meta_norad_cat_id": 44387,
        "meta_element_set_no": 999,
        "meta_rev_at_epoch": 33568,
        "meta_bstar": 0.00017424137,
        "meta_mean_motion_dot": 3.57e-06,
        "meta_mean_motion_ddot": 0,
        "tle_line1": "1 44387U 19038A   25353.27006740  .00000357  00000+0  17424-3 0  9996",
        "tle_line2": "2 44387  98.8969 333.0790 0001530 133.9431 226.1874 14.24295351335686"
      },
      "geometry": {
        "type": "Point",
        "coordinates": [
          -46.73996068640114,
          65.65914380141358
        ]
      }
    },
    {
      "type": "Feature",
      "properties": {
        "norad_id": 47719,
        "name": "ARKTIKA-M 1",
        "group": "weather",
        "lat": 59.74697741887263,
        "lon": 143.1321488000438,
        "alt_km": 36193.19458697163,
        "timestamp": "2025-12-19T16:54:43.892823+00:00",
        "meta_object_name": "ARKTIKA-M 1",
        "meta_object_id": "2021-016A",
        "meta_epoch": "2025-12-19T01:20:05.500608",
        "meta_mean_motion": 2.00630555,
        "meta_eccentricity": 0.72074999,
        "meta_inclination": 63.1749,
        "meta_ra_of_asc_node": 83.1285,
        "meta_arg_of_pericenter": 269.1501,
        "meta_mean_anomaly": 15.5623,
        "meta_ephemeris_type": 0,
        "meta_classification_type": "U",
        "meta_norad_cat_id": 47719,
        "meta_element_set_no": 999,
        "meta_rev_at_epoch": 3517,
        "meta_bstar": 0,
        "meta_mean_motion_dot": -1.23e-06,
        "meta_mean_motion_ddot": 0,
        "tle_line1": "1 47719U 21016A   25353.05561922 -.00000123  00000+0  00000+0 0  9991",
        "tle_line2": "2 47719  63.1749  83.1285 7207499 269.1501  15.5623  2.00630555 35173"
      },
      "geometry": {
        "type": "Point",
        "coordinates": [
          143.1321488000438,
          59.74697741887263
        ]
      }
    },
    {
      "type": "Feature",
      "properties": {
        "norad_id": 49008,
        "name": "FENGYUN 3E",
        "group": "weather",
        "lat": -79.40640390621574,
        "lon": 49.54819848187143,
        "alt_km": 832.8327560156176,
        "timestamp": "2025-12-19T16:54:43.892841+00:00",
        "meta_object_name": "FENGYUN 3E",
        "meta_object_id": "2021-062A",
        "meta_epoch": "2025-12-19T07:09:35.780256",
        "meta_mean_motion": 14.19880133,
        "meta_eccentricity": 6.594e-05,
        "meta_inclination": 98.747,
        "meta_ra_of_asc_node": 353.7421,
        "meta_arg_of_pericenter": 218.5231,
        "meta_mean_anomaly": 141.5898,
        "meta_ephemeris_type": 0,
        "meta_classification_type": "U",
        "meta_norad_cat_id": 49008,
        "meta_element_set_no": 999,
        "meta_rev_at_epoch": 23105,
        "meta_bstar": -2.700589e-05,
        "meta_mean_motion_dot": -1.01e-06,
        "meta_mean_motion_ddot": 0,
        "tle_line1": "1 49008U 21062A   25353.29833079 -.00000101  00000+0 -27006-4 0  9993",
        "tle_line2": "2 49008  98.7470 353.7421 0000659 218.5231 141.5898 14.19880133231050"
      },
      "geometry": {
        "type": "Point",
        "coordinates": [
          49.54819848187143,
          -79.40640390621574
        ]
      }
    },
    {
      "type": "Feature",
      "properties": {
        "norad_id": 51850,
        "name": "GOES 18",
        "group": "weather",
        "lat": -0.0014531469447057542,
        "lon": -154.77503919335712,
        "alt_km": 35787.12434726436,
        "timestamp": "2025-12-19T16:54:43.892868+00:00",
        "meta_object_name": "GOES 18",
        "meta_object_id": "2022-021A",
        "meta_epoch": "2025-12-19T05:45:54.864576",
        "meta_mean_motion": 1.00272804,
        "meta_eccentricity": 4.926e-05,
        "meta_inclination": 0.01,
        "meta_ra_of_asc_node": 64.751,
        "meta_arg_of_pericenter": 272.3096,
        "meta_mean_anomaly": 60.5151,
        "meta_ephemeris_type": 0,
        "meta_classification_type": "U",
        "meta_norad_cat_id": 51850,
        "meta_element_set_no": 999,
        "meta_rev_at_epoch": 478,
        "meta_bstar": 0,
        "meta_mean_motion_dot": 1.21e-06,
        "meta_mean_motion_ddot": 0,
        "tle_line1": "1 51850U 22021A   25353.24021834  .00000121  00000+0  00000+0 0  9990",
        "tle_line2": "2 51850   0.0100  64.7510 0000492 272.3096  60.5151  1.00272804  4780"
      },
      "geometry": {
        "type": "Point",
        "coordinates": [
          -154.77503919335712,
          -0.0014531469447057542
        ]
      }
    },
    {
      "type": "Feature",
      "properties": {
        "norad_id": 54234,
        "name": "NOAA 21 (JPSS-2)",
        "group": "weather",
        "lat": -80.58436529250415,
        "lon": -1.8841198389268934,
        "alt_km": 834.7723000752267,
        "timestamp": "2025-12-19T16:54:43.892886+00:00",
        "meta_object_name": "NOAA 21 (JPSS-2)",
        "meta_object_id": "2022-150A",
        "meta_epoch": "2025-12-19T05:28:39.344160",
        "meta_mean_motion": 14.1952592,
        "meta_eccentricity": 0.00019428,
        "meta_inclination": 98.747,
        "meta_ra_of_asc_node": 289.4557,
        "meta_arg_of_pericenter": 25.3373,
        "meta_mean_anomaly": 334.7898,
        "meta_ephemeris_type": 0,
        "meta_classification_type": "U",
        "meta_norad_cat_id": 54234,
        "meta_element_set_no": 999,
        "meta_rev_at_epoch": 16101,
        "meta_bstar": 4.2984187e-05,
        "meta_mean_motion_dot": 4.7e-07,
        "meta_mean_motion_ddot": 0,
        "tle_line1": "1 54234U 22150A   25353.22823315  .00000047  00000+0  42984-4 0  9993",
        "tle_line2": "2 54234  98.7470 289.4557 0001942  25.3373 334.7898 14.19525920161013"
      },
      "geometry": {
        "type": "Point",
        "coordinates": [
          -1.8841198389268934,
          -80.58436529250415
        ]
      }
    },
    {
      "type": "Feature",
      "properties": {
        "norad_id": 54743,
        "name": "METEOSAT-12 (MTG-I1)",
        "group": "weather",
        "lat": -0.47628127436985535,
        "lon": -18.06325568982459,
        "alt_km": 35785.182711762005,
        "timestamp": "2025-12-19T16:54:43.892905+00:00",
        "meta_object_name": "METEOSAT-12 (MTG-I1)",
        "meta_object_id": "2022-170C",
        "meta_epoch": "2025-12-19T06:24:51.136128",
        "meta_mean_motion": 1.00270426,
        "meta_eccentricity": 0.00014811,
        "meta_inclination": 0.6935,
        "meta_ra_of_asc_node": 24.6802,
        "meta_arg_of_pericenter": 239.4026,
        "meta_mean_anomaly": 279.9464,
        "meta_ephemeris_type": 0,
        "meta_classification_type": "U",
        "meta_norad_cat_id": 54743,
        "meta_element_set_no": 999,
        "meta_rev_at_epoch": 1117,
        "meta_bstar": 0,
        "meta_mean_motion_dot": 1.7e-07,
        "meta_mean_motion_ddot": 0,
        "tle_line1": "1 54743U 22170C   25353.26725852  .00000017  00000+0  00000+0 0  9996",
        "tle_line2": "2 54743   0.6935  24.6802 0001481 239.4026 279.9464  1.00270426 11173"
      },
      "geometry": {
        "type": "Point",
        "coordinates": [
          -18.06325568982459,
          -0.47628127436985535
        ]
      }
    }
  ]
}